$$SOE
2460154.500000000, A.D. 2023-Jul-29 00:00:00.0000, -3.102781365700956E+07, 3.660381814715565E+08, -8.530821076366767E+06,
2460161.500000000, A.D. 2023-Aug-05 00:00:00.0000, -4.172307547401075E+07, 3.643463214208629E+08, -7.695450337581709E+06,
2460168.500000000, A.D. 2023-Aug-12 00:00:00.0000, -5.237727078959283E+07, 3.622960837977180E+08, -6.852510346938193E+06,
2460175.500000000, A.D. 2023-Aug-19 00:00:00.0000, -6.297963592685857E+07, 3.598874909634826E+08, -6.002792494486555E+06,
2460182.500000000, A.D. 2023-Aug-26 00:00:00.0000, -7.351931834844905E+07, 3.571208134389029E+08, -5.147102031793609E+06,
2460189.500000000, A.D. 2023-Sep-02 00:00:00.0000, -8.398537663337526E+07, 3.539965771278623E+08, -4.286258286572054E+06,
2460196.500000000, A.D. 2023-Sep-09 00:00:00.0000, -9.436678074504422E+07, 3.505155709359313E+08, -3.421094881209403E+06,
2460203.500000000, A.D. 2023-Sep-16 00:00:00.0000, -1.046524124607644E+08, 3.466788547304584E+08, -2.552459972605556E+06,
2460210.500000000, A.D. 2023-Sep-23 00:00:00.0000, -1.148310655880490E+08, 3.424877679325209E+08, -1.681216525041312E+06,
2460217.500000000, A.D. 2023-Sep-30 00:00:00.0000, -1.248914463528232E+08, 3.379439399354449E+08, -8.082424844895899E+05,
2460224.500000000, A.D. 2023-Oct-07 00:00:00.0000, -1.348221763594547E+08, 3.330493018121174E+08, 6.556932020270824E+04,
2460231.500000000, A.D. 2023-Oct-14 00:00:00.0000, -1.446117971271341E+08, 3.278060959933916E+08, 9.393111871593744E+05,
2460238.500000000, A.D. 2023-Oct-21 00:00:00.0000, -1.542487730293867E+08, 3.222168855101013E+08, 1.812060302138999E+06,
2460245.500000000, A.D. 2023-Oct-28 00:00:00.0000, -1.637214941226097E+08, 3.162845650586045E+08, 2.682878569395512E+06,
2460252.500000000, A.D. 2023-Nov-04 00:00:00.0000, -1.730182801714629E+08, 3.100123731155798E+08, 3.550812568789050E+06,
2460259.500000000, A.D. 2023-Nov-11 00:00:00.0000, -1.821273857538541E+08, 3.034039044903734E+08, 4.414893579064876E+06,
2460266.500000000, A.D. 2023-Nov-18 00:00:00.0000, -1.910370062891431E+08, 2.964631232349058E+08, 5.274137647469983E+06,
2460273.500000000, A.D. 2023-Nov-25 00:00:00.0000, -1.997352849803092E+08, 2.891943759120232E+08, 6.127545706729472E+06,
2460280.500000000, A.D. 2023-Dec-02 00:00:00.0000, -2.082103207069434E+08, 2.816024051797161E+08, 6.974103742179126E+06,
2460287.500000000, A.D. 2023-Dec-09 00:00:00.0000, -2.164501768621007E+08, 2.736923635908247E+08, 7.812783003845006E+06,
2460294.500000000, A.D. 2023-Dec-16 00:00:00.0000, -2.244428909256723E+08, 2.654698275736837E+08, 8.642540245183259E+06,
2460301.500000000, A.D. 2023-Dec-23 00:00:00.0000, -2.321764845137527E+08, 2.569408122331725E+08, 9.462318019919187E+06,
2460308.500000000, A.D. 2023-Dec-30 00:00:00.0000, -2.396389753356586E+08, 2.481117879733109E+08, 1.027104525295827E+07,
2460315.500000000, A.D. 2024-Jan-06 00:00:00.0000, -2.468183929196729E+08, 2.389896965296911E+08, 1.106763806247175E+07,
2460322.500000000, A.D. 2024-Jan-13 00:00:00.0000, -2.537027950121265E+08, 2.295819645372097E+08, 1.185100040282820E+07,
2460329.500000000, A.D. 2024-Jan-20 00:00:00.0000, -2.602802835063251E+08, 2.198965176272111E+08, 1.262002467735124E+07,
2460336.500000000, A.D. 2024-Jan-27 00:00:00.0000, -2.665390220205800E+08, 2.099417956116943E+08, 1.337359256917797E+07,
2460343.500000000, A.D. 2024-Feb-03 00:00:00.0000, -2.724672556381295E+08, 1.997267677041346E+08, 1.411057606117569E+07,
2460350.500000000, A.D. 2024-Feb-10 00:00:00.0000, -2.780533326088066E+08, 1.892609473667790E+08, 1.482983860527118E+07,
2460357.500000000, A.D. 2024-Feb-17 00:00:00.0000, -2.832857279466813E+08, 1.785544066571805E+08, 1.553023643855737E+07,
2460364.500000000, A.D. 2024-Feb-24 00:00:00.0000, -2.881530689552153E+08, 1.676177899375645E+08, 1.621062005309904E+07,
2460371.500000000, A.D. 2024-Mar-02 00:00:00.0000, -2.926441627120155E+08, 1.564623267461311E+08, 1.686983582271503E+07,
2460378.500000000, A.D. 2024-Mar-09 00:00:00.0000, -2.967480254298149E+08, 1.450998435822791E+08, 1.750672777736792E+07,
2460385.500000000, A.D. 2024-Mar-16 00:00:00.0000, -3.004539133462331E+08, 1.335427746028049E+08, 1.812013951369557E+07,
2460392.500000000, A.D. 2024-Mar-23 00:00:00.0000, -3.037513552827603E+08, 1.218041721239660E+08, 1.870891635061351E+07,
2460399.500000000, A.D. 2024-Mar-30 00:00:00.0000, -3.066301891381754E+08, 1.098977166751834E+08, 1.927190794188480E+07,
2460406.500000000, A.D. 2024-Apr-06 00:00:00.0000, -3.090806020677574E+08, 9.783772299959677E+07, 1.980797105487064E+07,
2460413.500000000, A.D. 2024-Apr-13 00:00:00.0000, -3.110931707713888E+08, 8.563914258803551E+07, 2.031597226491585E+07,
2460420.500000000, A.D. 2024-Apr-20 00:00:00.0000, -3.126589027837964E+08, 7.331756514897834E+07, 2.079479087609421E+07,
2460427.500000000, A.D. 2024-Apr-27 00:00:00.0000, -3.137692802087238E+08, 6.088921816364638E+07, 2.124332216400429E+07,
2460434.500000000, A.D. 2024-May-04 00:00:00.0000, -3.144163057069003E+08, 4.837096353030824E+07, 2.166048087586185E+07,
2460441.500000000, A.D. 2024-May-11 00:00:00.0000, -3.145925503574665E+08, 3.578029089688067E+07, 2.204520495637864E+07,
2460448.500000000, A.D. 2024-May-18 00:00:00.0000, -3.142912031297300E+08, 2.313530739795754E+07, 2.239645948962925E+07,
2460455.500000000, A.D. 2024-May-25 00:00:00.0000, -3.135061217200149E+08, 1.045472348304426E+07, 2.271324084703253E+07,
2460462.500000000, A.D. 2024-Jun-01 00:00:00.0000, -3.122318844310431E+08, -2.242165522408103E+06, 2.299458102101083E+07,
2460469.500000000, A.D. 2024-Jun-08 00:00:00.0000, -3.104638425396944E+08, -1.493550243643450E+07, 2.323955210604386E+07,
2460476.500000000, A.D. 2024-Jun-15 00:00:00.0000, -3.081981723982193E+08, -2.760489554905206E+07, 2.344727091727543E+07,
2460483.500000000, A.D. 2024-Jun-22 00:00:00.0000, -3.054319278696811E+08, -4.022944933596528E+07, 2.361690391279358E+07,
2460490.500000000, A.D. 2024-Jun-29 00:00:00.0000, -3.021630947693962E+08, -5.278780060157771E+07, 2.374767243876892E+07,
2460497.500000000, A.D. 2024-Jul-06 00:00:00.0000, -2.983906441773542E+08, -6.525816270715088E+07, 2.383885782236235E+07,
2460504.500000000, A.D. 2024-Jul-13 00:00:00.0000, -2.941145821348838E+08, -7.761837519257344E+07, 2.388980632970757E+07,
2460511.500000000, A.D. 2024-Jul-20 00:00:00.0000, -2.893359971216680E+08, -8.984595772060288E+07, 2.389993422463042E+07,
2460518.500000000, A.D. 2024-Jul-27 00:00:00.0000, -2.840571053441417E+08, -1.019181693259134E+08, 2.386873286402532E+07,
2460525.500000000, A.D. 2024-Aug-03 00:00:00.0000, -2.782812929188223E+08, -1.138120732988629E+08, 2.379577372493376E+07,
2460532.500000000, A.D. 2024-Aug-10 00:00:00.0000, -2.720131541243584E+08, -1.255046075803421E+08, 2.368071329572251E+07,
2460539.500000000, A.D. 2024-Aug-17 00:00:00.0000, -2.652585250010101E+08, -1.369726604287508E+08, 2.352329777355761E+07,
2460546.500000000, A.D. 2024-Aug-24 00:00:00.0000, -2.580245115930587E+08, -1.481931510693567E+08, 2.332336750543366E+07,
2460553.500000000, A.D. 2024-Aug-31 00:00:00.0000, -2.503195120483143E+08, -1.591431149747294E+08, 2.308086109575447E+07,
2460560.500000000, A.D. 2024-Sep-07 00:00:00.0000, -2.421532315538034E+08, -1.697997931379674E+08, 2.279581909305621E+07,
2460567.500000000, A.D. 2024-Sep-14 00:00:00.0000, -2.335366893990578E+08, -1.801407237428139E+08, 2.246838726408200E+07,
2460574.500000000, A.D. 2024-Sep-21 00:00:00.0000, -2.244822196337152E+08, -1.901438351395422E+08, 2.209881961195780E+07,
2460581.500000000, A.D. 2024-Sep-28 00:00:00.0000, -2.150034653353454E+08, -1.997875425971584E+08, 2.168748086192652E+07,
2460588.500000000, A.D. 2024-Oct-05 00:00:00.0000, -2.051153624503649E+08, -2.090508479882074E+08, 2.123484802740625E+07,
2460595.500000000, A.D. 2024-Oct-12 00:00:00.0000, -1.948341133013631E+08, -2.179134384990834E+08, 2.074151128768509E+07,
2460602.500000000, A.D. 2024-Oct-19 00:00:00.0000, -1.841771513457210E+08, -2.263557836421297E+08, 2.020817427517085E+07,
2460609.500000000, A.D. 2024-Oct-26 00:00:00.0000, -1.731630971655033E+08, -2.343592303341793E+08, 1.963565367498909E+07,
2460616.500000000, A.D. 2024-Nov-02 00:00:00.0000, -1.618117055074843E+08, -2.419060951370205E+08, 1.902487807464123E+07,
2460623.500000000, A.D. 2024-Nov-09 00:00:00.0000, -1.501438034954110E+08, -2.489797525912097E+08, 1.837688604105958E+07,
2460630.500000000, A.D. 2024-Nov-16 00:00:00.0000, -1.381812203535156E+08, -2.555647186144280E+08, 1.769282341943173E+07,
2460637.500000000, A.D. 2024-Nov-23 00:00:00.0000, -1.259467090990875E+08, -2.616467280228937E+08, 1.697393985367082E+07,
2460644.500000000, A.D. 2024-Nov-30 00:00:00.0000, -1.134638606328463E+08, -2.672128052876628E+08, 1.622158452545300E+07,
2460651.500000000, A.D. 2024-Dec-07 00:00:00.0000, -1.007570105690330E+08, -2.722513272571965E+08, 1.543720113870099E+07,
2460658.500000000, A.D. 2024-Dec-14 00:00:00.0000, -8.785114036742283E+07, -2.767520758749517E+08, 1.462232235484615E+07,
2460665.500000000, A.D. 2024-Dec-21 00:00:00.0000, -7.477177605411164E+07, -2.807062815018743E+08, 1.377856384244560E+07,
2460672.500000000, A.D. 2024-Dec-28 00:00:00.0000, -6.154488360300557E+07, -2.841066593154373E+08, 1.290761757962020E+07,
2460679.500000000, A.D. 2025-Jan-04 00:00:00.0000, -4.819675948415570E+07, -2.869474360617433E+08, 1.201124443642233E+07,
2460686.500000000, A.D. 2025-Jan-11 00:00:00.0000, -3.475391933946247E+07, -2.892243653024057E+08, 1.109126641826953E+07,
2460693.500000000, A.D. 2025-Jan-18 00:00:00.0000, -2.124298685223807E+07, -2.909347320267428E+08, 1.014955866299687E+07,
2460700.500000000, A.D. 2025-Jan-25 00:00:00.0000, -7.690583704575038E+06, -2.920773472061771E+08, 9.188041217359066E+06,
2460707.500000000, A.D. 2025-Feb-01 00:00:00.0000, 5.876778464064136E+06, -2.926525325676759E+08, 8.208670661405787E+06,
2460714.500000000, A.D. 2025-Feb-08 00:00:00.0000, 1.943280311055425E+07, -2.926620959495098E+08, 7.213431664579123E+06,
2460721.500000000, A.D. 2025-Feb-15 00:00:00.0000, 3.295150991533770E+07, -2.921092977716241E+08, 6.204328555362105E+06,
$$EOE